PLEIADES NEO 3          
1 48268U 21034A   23117.14665481 -.00001187  00000+0 -14422-3 0  9991
2 48268  97.8915 192.3742 0001127 127.8805 232.2524 14.81667985107800
NUSAT-19 (ROSALIND)     
1 48905U 21059AC  23117.08360407  .00015448  00000+0  58560-3 0  9993
2 48905  97.5447 252.0577 0009259  65.5319  21.6482 15.26935342101775
NUSAT-21 (ELISA)        
1 48920U 21059AT  23117.16259295  .00051590  00000+0  80527-3 0  9997
2 48920  97.3810 256.0732 0008111 352.5298 110.9942 15.53631891102857
NUSAT-20 (GRACE)        
1 48921U 21059AU  23117.14927441  .00046231  00000+0  79695-3 0  9991
2 48921  97.3956 256.2396 0009420  15.7963 157.0145 15.50865428102790
PLEIADES NEO 4          
1 49070U 21073E   23117.11287511  .00000071  00000+0  15617-4 0  9994
2 49070  97.8925 192.3343 0001021 105.8590 254.2764 14.81674074 91517
LANDSAT 9               
1 49260U 21088A   23117.20969339  .00000657  00000+0  15580-3 0  9994
2 49260  98.1875 187.9579 0001176  95.9596 264.1736 14.57127014 83962
INS-2TD                 
1 51658U 22013C   23116.82641212  .00014158  00000+0  63966-3 0  9993
2 51658  97.5505 128.8669 0010113 174.4908 185.6441 15.21025586 66171
GAOFEN 12-03            
1 52912U 22069A   23117.11031715  .00002037  00000+0  27163-3 0  9994
2 52912  97.9572   7.6409 0001901 333.6065  26.5065 14.80708911 44891
SWOT                    
1 54754U 22173A   23117.17300335  .00000232  00000+0  13343-3 0  9999
2 54754  77.6044 145.3394 0001092 210.4089 149.7005 14.09852645 18559
