[{"OBJECT_NAME":"PLEIADES NEO 3","OBJECT_ID":"2021-034A","EPOCH":"2023-04-27T03:31:10.975584","MEAN_MOTION":14.81667985,"ECCENTRICITY":0.0001127,"INCLINATION":97.8915,"RA_OF_ASC_NODE":192.3742,"ARG_OF_PERICENTER":127.8805,"MEAN_ANOMALY":232.2524,"EPHEMERIS_TYPE":0,"CLASSIFICATION_TYPE":"U","NORAD_CAT_ID":48268,"ELEMENT_SET_NO":999,"REV_AT_EPOCH":10780,"BSTAR":-0.00014422,"MEAN_MOTION_DOT":-1.187e-5,"MEAN_MOTION_DDOT":0},{"OBJECT_NAME":"NUSAT-19 (ROSALIND)","OBJECT_ID":"2021-059AC","EPOCH":"2023-04-27T02:00:23.391648","MEAN_MOTION":15.26935342,"ECCENTRICITY":0.0009259,"INCLINATION":97.5447,"RA_OF_ASC_NODE":252.0577,"ARG_OF_PERICENTER":65.5319,"MEAN_ANOMALY":21.6482,"EPHEMERIS_TYPE":0,"CLASSIFICATION_TYPE":"U","NORAD_CAT_ID":48905,"ELEMENT_SET_NO":999,"REV_AT_EPOCH":10177,"BSTAR":0.0005856,"MEAN_MOTION_DOT":0.00015448,"MEAN_MOTION_DDOT":0},{"OBJECT_NAME":"NUSAT-21 (ELISA)","OBJECT_ID":"2021-059AT","EPOCH":"2023-04-27T03:54:08.030880","MEAN_MOTION":15.53631891,"ECCENTRICITY":0.0008111,"INCLINATION":97.381,"RA_OF_ASC_NODE":256.0732,"ARG_OF_PERICENTER":352.5298,"MEAN_ANOMALY":110.9942,"EPHEMERIS_TYPE":0,"CLASSIFICATION_TYPE":"U","NORAD_CAT_ID":48920,"ELEMENT_SET_NO":999,"REV_AT_EPOCH":10285,"BSTAR":0.00080527,"MEAN_MOTION_DOT":0.0005159,"MEAN_MOTION_DDOT":0},{"OBJECT_NAME":"NUSAT-20 (GRACE)","OBJECT_ID":"2021-059AU","EPOCH":"2023-04-27T03:34:57.309024","MEAN_MOTION":15.50865428,"ECCENTRICITY":0.000942,"INCLINATION":97.3956,"RA_OF_ASC_NODE":256.2396,"ARG_OF_PERICENTER":15.7963,"MEAN_ANOMALY":157.0145,"EPHEMERIS_TYPE":0,"CLASSIFICATION_TYPE":"U","NORAD_CAT_ID":48921,"ELEMENT_SET_NO":999,"REV_AT_EPOCH":10279,"BSTAR":0.00079695,"MEAN_MOTION_DOT":0.00046231,"MEAN_MOTION_DDOT":0},{"OBJECT_NAME":"PLEIADES NEO 4","OBJECT_ID":"2021-073E","EPOCH":"2023-04-27T02:42:32.409504","MEAN_MOTION":14.81674074,"ECCENTRICITY":0.0001021,"INCLINATION":97.8925,"RA_OF_ASC_NODE":192.3343,"ARG_OF_PERICENTER":105.859,"MEAN_ANOMALY":254.2764,"EPHEMERIS_TYPE":0,"CLASSIFICATION_TYPE":"U","NORAD_CAT_ID":49070,"ELEMENT_SET_NO":999,"REV_AT_EPOCH":9151,"BSTAR":1.5617e-5,"MEAN_MOTION_DOT":7.1e-7,"MEAN_MOTION_DDOT":0},{"OBJECT_NAME":"LANDSAT 9","OBJECT_ID":"2021-088A","EPOCH":"2023-04-27T05:01:57.508896","MEAN_MOTION":14.57127014,"ECCENTRICITY":0.0001176,"INCLINATION":98.1875,"RA_OF_ASC_NODE":187.9579,"ARG_OF_PERICENTER":95.9596,"MEAN_ANOMALY":264.1736,"EPHEMERIS_TYPE":0,"CLASSIFICATION_TYPE":"U","NORAD_CAT_ID":49260,"ELEMENT_SET_NO":999,"REV_AT_EPOCH":8396,"BSTAR":0.0001558,"MEAN_MOTION_DOT":6.57e-6,"MEAN_MOTION_DDOT":0},{"OBJECT_NAME":"INS-2TD","OBJECT_ID":"2022-013C","EPOCH":"2023-04-26T19:50:02.007168","MEAN_MOTION":15.21025586,"ECCENTRICITY":0.0010113,"INCLINATION":97.5505,"RA_OF_ASC_NODE":128.8669,"ARG_OF_PERICENTER":174.4908,"MEAN_ANOMALY":185.6441,"EPHEMERIS_TYPE":0,"CLASSIFICATION_TYPE":"U","NORAD_CAT_ID":51658,"ELEMENT_SET_NO":999,"REV_AT_EPOCH":6617,"BSTAR":0.00063966,"MEAN_MOTION_DOT":0.00014158,"MEAN_MOTION_DDOT":0},{"OBJECT_NAME":"GAOFEN 12-3","OBJECT_ID":"2022-069A","EPOCH":"2023-04-27T02:38:51.401760","MEAN_MOTION":14.80708911,"ECCENTRICITY":0.0001901,"INCLINATION":97.9572,"RA_OF_ASC_NODE":7.6409,"ARG_OF_PERICENTER":333.6065,"MEAN_ANOMALY":26.5065,"EPHEMERIS_TYPE":0,"CLASSIFICATION_TYPE":"U","NORAD_CAT_ID":52912,"ELEMENT_SET_NO":999,"REV_AT_EPOCH":4489,"BSTAR":0.00027163,"MEAN_MOTION_DOT":2.037e-5,"MEAN_MOTION_DDOT":0},{"OBJECT_NAME":"SWOT","OBJECT_ID":"2022-173A","EPOCH":"2023-04-27T04:09:07.489440","MEAN_MOTION":14.09852645,"ECCENTRICITY":0.0001092,"INCLINATION":77.6044,"RA_OF_ASC_NODE":145.3394,"ARG_OF_PERICENTER":210.4089,"MEAN_ANOMALY":149.7005,"EPHEMERIS_TYPE":0,"CLASSIFICATION_TYPE":"U","NORAD_CAT_ID":54754,"ELEMENT_SET_NO":999,"REV_AT_EPOCH":1855,"BSTAR":0.00013343,"MEAN_MOTION_DOT":2.32e-6,"MEAN_MOTION_DDOT":0}]
